KUIPER-00016            
1 63732U 25088J   25331.94256543  .00004209  00000+0  58015-3 0  9992
2 63732  51.8984 201.5208 0013914  88.4975 271.7581 14.79943449 32263
KUIPER-00018            
1 63733U 25088K   25331.88754755 -.00001978  00000+0 -22992-3 0  9991
2 63733  51.9008 190.7161 0013963 110.2069 250.0397 14.79872907 32413
KUIPER-00019            
1 63734U 25088L   25331.88857660 -.00005303  00000+0 -66711-3 0  9994
2 63734  51.8983 189.2621 0010230 120.2821 239.9155 14.79878303 32436
KUIPER-00020            
1 63735U 25088M   25331.88475040  .00003503  00000+0  48780-3 0  9997
2 63735  51.8996 193.2577 0009429 101.7674 258.4346 14.79967644 32585
KUIPER-00021            
1 63736U 25088N   25331.88311269  .00001176  00000+0  18343-3 0  9996
2 63736  51.8996 194.2660 0008099 100.2887 259.8989 14.79936318 32405
KUIPER-00023            
1 63737U 25088P   25331.88210940  .00003453  00000+0  48139-3 0  9997
2 63737  51.8979 195.7373 0012294 118.9800 241.2397 14.79951153 32689
KUIPER-00024            
1 63738U 25088Q   25331.88833370  .00002189  00000+0  31811-3 0  9990
2 63738  51.9007 183.1765 0005285 113.9431 246.2086 14.79657911 32984
KUIPER-00025            
1 63739U 25088R   25331.87567741  .00002308  00000+0  32720-3 0  9999
2 63739  51.8984 191.7184 0009911  97.8671 262.3417 14.80526331 32726
